ONEWEB-0395             
1 50475U 21132G   26175.26264645  .00000267  00000+0  71688-3 0  9993
2 50475  87.8881  19.6584 0002071  88.1517 271.9848 13.11414050216644
ONEWEB-0396             
1 50476U 21132H   26175.14788316 -.00000029  00000+0 -10560-3 0  9997
2 50476  87.9176 334.0698 0001878  88.6774 271.4573 13.18685463222559
ONEWEB-0397             
1 50477U 21132J   26175.16305942 -.00000012  00000+0 -64348-4 0  9996
2 50477  87.9176 334.0668 0001769  86.8759 273.2576 13.18685238222530
ONEWEB-0398             
1 50478U 21132K   26175.07783420  .00000119  00000+0  30082-3 0  9991
2 50478  87.8891  19.6864 0002036  93.4916 266.6445 13.11418824216515
ONEWEB-0399             
1 50479U 21132L   26175.06426719 -.00000397  00000+0 -11550-2 0  9994
2 50479  87.8890  19.7003 0001999  73.6144 286.5203 13.11417923216502
ONEWEB-0400             
1 50480U 21132M   26175.14114038  .00000040  00000+0  67544-4 0  9992
2 50480  87.9176 334.0609 0001983  98.1397 261.9961 13.18686405222529
ONEWEB-0401             
1 50481U 21132N   26175.18666566 -.00000014  00000+0 -68422-4 0  9994
2 50481  87.9181 334.0493 0001584  92.9606 267.1707 13.18685079222532
ONEWEB-0402             
1 50482U 21132P   26175.14957452 -.00000008  00000+0 -52647-4 0  9993
2 50482  87.9174 334.0457 0001403  87.3793 272.7500 13.18686144222559
ONEWEB-0403             
1 50483U 21132Q   26175.17486250  .00000058  00000+0  11420-3 0  9996
2 50483  87.9177 334.0651 0001928  90.9454 269.1899 13.18685243222511
ONEWEB-0404             
1 50484U 21132R   26175.27450318 -.00000203  00000+0 -60733-3 0  9999
2 50484  87.8884  19.6560 0002064  81.0687 279.0675 13.11416238216628
ONEWEB-0405             
1 50485U 21132S   26175.26419647 -.00000477  00000+0 -12412-2 0  9992
2 50485  87.9166 334.0304 0002271 103.1896 256.9489 13.18700079222924
ONEWEB-0406             
1 50486U 21132T   26175.17992041  .00000082  00000+0  17483-3 0  9991
2 50486  87.9173 334.0648 0002236  83.5643 276.5744 13.18685237222544
ONEWEB-0407             
1 50487U 21132U   26175.17318545 -.00000084  00000+0 -24527-3 0  9994
2 50487  87.9178 334.0585 0001716  99.8370 260.2956 13.18686882222484
ONEWEB-0409             
1 50488U 21132V   26175.27280790 -.00000239  00000+0 -71070-3 0  9993
2 50488  87.8888  19.6450 0002127  85.0030 275.1341 13.11414202216514
ONEWEB-0412             
1 50489U 21132W   26175.16137099  .00000164  00000+0  38334-3 0  9996
2 50489  87.9172 334.0690 0001403  90.1138 270.0155 13.18685014222572
ONEWEB-0413             
1 50490U 21132X   26175.16644272  .00000094  00000+0  20515-3 0  9998
2 50490  87.9167 334.0662 0001553  96.6679 263.4630 13.18686442222518
ONEWEB-0414             
1 50491U 21132Y   26175.15125821 -.00000028  00000+0 -10461-3 0  9990
2 50491  87.9176 334.0516 0001755  89.3810 270.7523 13.18685809222548
ONEWEB-0417             
1 50492U 21132Z   26175.15968589  .00000083  00000+0  17870-3 0  9997
2 50492  87.9173 334.0681 0001921  89.1297 271.0055 13.18686485222524
ONEWEB-0418             
1 50493U 21132AA  26175.16965884  .00002911  00000+0  73508-2 0  9995
2 50493  87.9174 334.0674 0002110  91.9882 268.1492 13.18670238222587
ONEWEB-0419             
1 50494U 21132AB  26174.96008616  .00083721  00000+0  20851+0 0  9992
2 50494  87.9164 334.1080 0002009 318.6301  41.4679 13.19289812222473
ONEWEB-0420             
1 50495U 21132AC  26175.15293672 -.00000013  00000+0 -65101-4 0  9990
2 50495  87.9168 334.0727 0001725  99.7061 260.4266 13.18686084222497
ONEWEB-0421             
1 50496U 21132AD  26175.14619964 -.00000013  00000+0 -66486-4 0  9993
2 50496  87.9169 334.0717 0001653  83.6191 276.5129 13.18685086222536
ONEWEB-0424             
1 50497U 21132AE  26175.18329506  .00000020  00000+0  18130-4 0  9997
2 50497  87.9173 334.0628 0002196  99.3067 260.8313 13.18685116222560
ONEWEB-0426             
1 50498U 21132AF  26175.14197468  .00000010  00000+0 -78527-5 0  9991
2 50498  87.9174 334.0619 0002020  74.1897 285.9457 13.18685166222506
ONEWEB-0427             
1 50499U 21132AG  26175.18160958  .00000033  00000+0  50249-4 0  9994
2 50499  87.9180 334.0431 0001983  89.4161 270.7198 13.18685050222535
ONEWEB-0429             
1 50500U 21132AH  26175.16811616 -.00000016  00000+0 -74373-4 0  9996
2 50500  87.9169 334.0697 0001763  97.2941 262.8391 13.18685879222501
ONEWEB-0430             
1 50501U 21132AJ  26175.15630636  .00000019  00000+0  16628-4 0  9997
2 50501  87.9171 334.0703 0001923 102.1330 258.0018 13.18686775222542
ONEWEB-0432             
1 50502U 21132AK  26175.20775116  .00000024  00000+0  29018-4 0  9990
2 50502  87.9175 334.0421 0002331 105.6041 254.5348 13.17154847222507
ONEWEB-0440             
1 50503U 21132AL  26175.17654633  .00000008  00000+0 -12072-4 0  9992
2 50503  87.9178 334.0630 0001509  91.9945 268.1360 13.18685522222492
ONEWEB-0450             
1 50504U 21132AM  26175.16993995 -.00000152  00000+0 -41840-3 0  9994
2 50504  87.9143 334.0682 0000959 115.6556 244.4675 13.18687414222524
