OBJECT_NAME,OBJECT_ID,EPOCH,MEAN_MOTION,ECCENTRICITY,INCLINATION,RA_OF_ASC_NODE,ARG_OF_PERICENTER,MEAN_ANOMALY,EPHEMERIS_TYPE,CLASSIFICATION_TYPE,NORAD_CAT_ID,ELEMENT_SET_NO,REV_AT_EPOCH,BSTAR,MEAN_MOTION_DOT,MEAN_MOTION_DDOT
ONEWEB-0395,2021-132G,2026-06-24T06:18:12.653280,13.11414050,.00020714,87.8881,19.6584,88.1517,271.9848,0,U,50475,999,21664,.71688233E-3,.267E-5,0
ONEWEB-0396,2021-132H,2026-06-24T03:32:57.105024,13.18685463,.00018786,87.9176,334.0698,88.6774,271.4573,0,U,50476,999,22255,-.10560323E-3,-.29E-6,0
ONEWEB-0397,2021-132J,2026-06-24T03:54:48.333888,13.18685238,.00017691,87.9176,334.0668,86.8759,273.2576,0,U,50477,999,22253,-.64347625E-4,-.12E-6,0
ONEWEB-0398,2021-132K,2026-06-24T01:52:04.874880,13.11418824,.00020364,87.8891,19.6864,93.4916,266.6445,0,U,50478,999,21651,.30081742E-3,.119E-5,0
ONEWEB-0399,2021-132L,2026-06-24T01:32:32.685216,13.11417923,.00019992,87.8890,19.7003,73.6144,286.5203,0,U,50479,999,21650,-.11550256E-2,-.397E-5,0
ONEWEB-0400,2021-132M,2026-06-24T03:23:14.528832,13.18686405,.00019837,87.9176,334.0609,98.1397,261.9961,0,U,50480,999,22252,.67544362E-4,.4E-6,0
ONEWEB-0401,2021-132N,2026-06-24T04:28:47.913024,13.18685079,.00015845,87.9181,334.0493,92.9606,267.1707,0,U,50481,999,22253,-.68422262E-4,-.14E-6,0
ONEWEB-0402,2021-132P,2026-06-24T03:35:23.238528,13.18686144,.00014031,87.9174,334.0457,87.3793,272.7500,0,U,50482,999,22255,-.5264741E-4,-.8E-7,0
ONEWEB-0403,2021-132Q,2026-06-24T04:11:48.120000,13.18685243,.00019288,87.9177,334.0651,90.9454,269.1899,0,U,50483,999,22251,.11420251E-3,.58E-6,0
ONEWEB-0404,2021-132R,2026-06-24T06:35:17.074752,13.11416238,.0002064,87.8884,19.6560,81.0687,279.0675,0,U,50484,999,21662,-.60732964E-3,-.203E-5,0
ONEWEB-0405,2021-132S,2026-06-24T06:20:26.575008,13.18700079,.00022714,87.9166,334.0304,103.1896,256.9489,0,U,50485,999,22292,-.12412112E-2,-.477E-5,0
ONEWEB-0406,2021-132T,2026-06-24T04:19:05.123424,13.18685237,.00022363,87.9173,334.0648,83.5643,276.5744,0,U,50486,999,22254,.17483474E-3,.82E-6,0
ONEWEB-0407,2021-132U,2026-06-24T04:09:23.222880,13.18686882,.00017166,87.9178,334.0585,99.8370,260.2956,0,U,50487,999,22248,-.24527222E-3,-.84E-6,0
ONEWEB-0409,2021-132V,2026-06-24T06:32:50.602560,13.11414202,.00021275,87.8888,19.6450,85.0030,275.1341,0,U,50488,999,21651,-.71069549E-3,-.239E-5,0
ONEWEB-0412,2021-132W,2026-06-24T03:52:22.453536,13.18685014,.00014039,87.9172,334.0690,90.1138,270.0155,0,U,50489,999,22257,.38333755E-3,.164E-5,0
ONEWEB-0413,2021-132X,2026-06-24T03:59:40.651008,13.18686442,.00015534,87.9167,334.0662,96.6679,263.4630,0,U,50490,999,22251,.20515175E-3,.94E-6,0
ONEWEB-0414,2021-132Y,2026-06-24T03:37:48.709344,13.18685809,.00017554,87.9176,334.0516,89.3810,270.7523,0,U,50491,999,22254,-.10460909E-3,-.28E-6,0
ONEWEB-0417,2021-132Z,2026-06-24T03:49:56.860896,13.18686485,.0001921,87.9173,334.0681,89.1297,271.0055,0,U,50492,999,22252,.1787047E-3,.83E-6,0
ONEWEB-0418,2021-132AA,2026-06-24T04:04:18.523776,13.18670238,.00021101,87.9174,334.0674,91.9882,268.1492,0,U,50493,999,22258,.73507822E-2,.2911E-4,0
ONEWEB-0419,2021-132AB,2026-06-23T23:02:31.444224,13.19289812,.00020093,87.9164,334.1080,318.6301,41.4679,0,U,50494,999,22247,.20851271E+0,.83721E-3,0
ONEWEB-0420,2021-132AC,2026-06-24T03:40:13.732608,13.18686084,.00017256,87.9168,334.0727,99.7061,260.4266,0,U,50495,999,22249,-.65101409E-4,-.13E-6,0
ONEWEB-0421,2021-132AD,2026-06-24T03:30:31.648896,13.18685086,.00016538,87.9169,334.0717,83.6191,276.5129,0,U,50496,999,22253,-.66485784E-4,-.13E-6,0
ONEWEB-0424,2021-132AE,2026-06-24T04:23:56.693184,13.18685116,.00021963,87.9173,334.0628,99.3067,260.8313,0,U,50497,999,22256,.18130372E-4,.2E-6,0
ONEWEB-0426,2021-132AF,2026-06-24T03:24:26.612352,13.18685166,.000202,87.9174,334.0619,74.1897,285.9457,0,U,50498,999,22250,-.7852667E-5,.1E-6,0
ONEWEB-0427,2021-132AG,2026-06-24T04:21:31.067712,13.18685050,.00019834,87.9180,334.0431,89.4161,270.7198,0,U,50499,999,22253,.50248984E-4,.33E-6,0
ONEWEB-0429,2021-132AH,2026-06-24T04:02:05.236224,13.18685879,.00017633,87.9169,334.0697,97.2941,262.8391,0,U,50500,999,22250,-.74372864E-4,-.16E-6,0
ONEWEB-0430,2021-132AJ,2026-06-24T03:45:04.869504,13.18686775,.00019237,87.9171,334.0703,102.1330,258.0018,0,U,50501,999,22254,.16627595E-4,.19E-6,0
ONEWEB-0432,2021-132AK,2026-06-24T04:59:09.700224,13.17154847,.00023317,87.9175,334.0421,105.6041,254.5348,0,U,50502,999,22250,.29017601E-4,.24E-6,0
ONEWEB-0440,2021-132AL,2026-06-24T04:14:13.602912,13.18685522,.0001509,87.9178,334.0630,91.9945,268.1360,0,U,50503,999,22249,-.12072342E-4,.8E-7,0
ONEWEB-0450,2021-132AM,2026-06-24T04:04:42.811680,13.18687414,.00009594,87.9143,334.0682,115.6556,244.4675,0,U,50504,999,22252,-.41839613E-3,-.152E-5,0
